STARLINK-30705          
1 57945U 23148L   26068.31450824  .00000375  00000+0  24786-4 0  9992
2 57945  53.1615  26.1215 0000887  94.1630 265.9473 15.30188481138362
YAM-7                   
1 60504U 24149AN  26068.71799904  .00009009  00000+0  30984-3 0  9997
2 60504  97.3828 149.4631 0001973 296.5121  63.5918 15.30304554 86835
